STARLINK-1637           
1 46133U 20057S   23284.38008953 -.00002355  00000+0 -13931-3 0  9992
2 46133  53.0528 268.4829 0001412  95.0359 265.0791 15.06389583175191
STARLINK-1638           
1 46134U 20057T   23284.34077225  .00005301  00000+0  36377-4 0  9999
2 46134  53.0509 248.2314 0001181  87.7752 272.3402 15.76718185174228
STARLINK-1639           
1 46135U 20057U   23284.39853446  .00030652  00000+0  20699-2 0  9997
2 46135  53.0541 268.3995 0001440  81.3069 278.8084 15.06361052173947
STARLINK-1643           
1 46136U 20057V   23284.31836973  .00026041  00000+0  17624-2 0  9997
2 46136  53.0540 298.7994 0001624  77.3626 282.7544 15.06363433173514
STARLINK-1586           
1 46137U 20057W   23284.33402452  .00001447  00000+0  11600-3 0  9993
2 46137  53.0534 288.6905 0001268  91.7294 268.3841 15.06394667173651
STARLINK-1590           
1 46138U 20057X   23284.33219486  .00017584  00000+0  11975-2 0  9990
2 46138  53.0531 308.6996 0001579  75.4896 284.6268 15.06365548173373
STARLINK-1594           
1 46140U 20057Z   23284.35799132  .00030126  00000+0  20344-2 0  9993
2 46140  53.0532 268.5803 0001688 113.9513 246.1653 15.06369985175207
STARLINK-1596           
1 46141U 20057AA  23284.26953535 -.00000319  00000+0 -25381-5 0  9995
2 46141  53.0539 268.9781 0001470  85.7305 274.3852 15.06372345173923
STARLINK-1597           
1 46142U 20057AB  23284.35430488  .00018607  00000+0  12657-2 0  9999
2 46142  53.0542 308.5973 0001621 108.9018 251.2147 15.06371251173374
STARLINK-1606           
1 46144U 20057AD  23284.38563015  .00028302  00000+0  19132-2 0  9995
2 46144  53.0534 288.4544 0001410  73.9037 286.2108 15.06362374161913
STARLINK-1608           
1 46146U 20057AF  23284.36536668  .00020828  00000+0  14140-2 0  9998
2 46146  53.0540 308.5499 0001413 109.0810 251.0332 15.06374551173381
STARLINK-1611           
1 46147U 20057AG  23284.47961596  .00001857  00000+0  14355-3 0  9993
2 46147  53.0538 308.0352 0001570 100.6185 259.4981 15.06391797174652
STARLINK-1616           
1 46148U 20057AH  23284.28610531 -.00002866  00000+0 -17362-3 0  9997
2 46148  53.0529 288.9054 0001614  89.7360 270.3814 15.06389380173649
STARLINK-1620           
1 46149U 20057AJ  23284.29990630  .00000491  00000+0  51831-4 0  9990
2 46149  53.0534 288.8339 0001477  84.9304 275.1854 15.06395413174926
STARLINK-1629           
1 46150U 20057AK  23284.36166728  .00002242  00000+0  16938-3 0  9997
2 46150  53.0545 308.5668 0001273  86.2515 273.8620 15.06387414173385
STARLINK-1631           
1 46151U 20057AL  23284.33771752  .00000928  00000+0  81208-4 0  9996
2 46151  53.0557 288.6742 0001477  89.8674 270.2484 15.06385833173653
STARLINK-1634           
1 46152U 20057AM  23284.45750621  .00001698  00000+0  13292-3 0  9994
2 46152  53.0535 308.1735 0001416  86.1818 273.9333 15.06387511173392
STARLINK-1636           
1 46153U 20057AN  23284.48885461  .00042334  00000+0  28444-2 0  9995
2 46153  53.0537 287.9916 0001514  72.2020 287.9134 15.06394156174332
STARLINK-1642           
1 46154U 20057AP  23284.36629122  .00016711  00000+0  11391-2 0  9996
2 46154  53.0534 298.5466 0001616  78.7249 281.3922 15.06367690173521
STARLINK-1667           
1 46155U 20057AQ  23284.25847656 -.00001451  00000+0 -78562-4 0  9991
2 46155  53.0545 269.0318 0001651  86.2550 273.8628 15.06374325175165
STARLINK-1545           
1 46156U 20057AR  23284.31559379 -.00000820  00000+0 -36181-4 0  9991
2 46156  53.0542 288.7735 0001463  87.8213 272.2944 15.06387889174902
STARLINK-1587           
1 46157U 20057AS  23284.36904797  .00031047  00000+0  20959-2 0  9992
2 46157  53.0533 268.5317 0001514  71.9368 288.1786 15.06366576173940
STARLINK-1589           
1 46158U 20057AT  23284.36537139  .00020522  00000+0  13936-2 0  9998
2 46158  53.0536 268.5453 0001714  82.3870 277.7314 15.06373029175204
STARLINK-1595           
1 46159U 20057AU  23284.53860467  .00027971  00000+0  18902-2 0  9994
2 46159  53.0537 307.7713 0001747 109.0670 251.0508 15.06380596174668
STARLINK-1598           
1 46160U 20057AV  23284.33034832 -.00002689  00000+0 -16178-3 0  9998
2 46160  53.0545 288.7058 0001644 103.0428 257.0744 15.06375070174906
STARLINK-1600           
1 46161U 20057AW  23284.44091985  .00027142  00000+0  18354-2 0  9999
2 46161  53.0533 288.2111 0001615  73.7178 286.3989 15.06371976174921
STARLINK-1603           
1 46162U 20057AX  23284.31190781  .00014784  00000+0  10103-2 0  9992
2 46162  53.0535 288.7896 0001552  81.7000 278.4165 15.06363115174915
STARLINK-1610           
1 46163U 20057AY  23284.37642743  .00007919  00000+0  55022-3 0  9991
2 46163  53.0534 268.4984 0001413  83.0160 277.0989 15.06379751173940
STARLINK-1612           
1 46164U 20057AZ  23284.43908132  .00031926  00000+0  21546-2 0  9994
2 46164  53.0529 268.2186 0001837  88.7980 271.3219 15.06364297175213
STARLINK-1613           
1 46165U 20057BA  23284.58638388  .00047003  00000+0  11890-2 0  9998
2 46165  53.0583 239.8377 0001450  13.4694 346.6347 15.39329341174380
STARLINK-1615           
1 46166U 20057BB  23284.35798686  .00022577  00000+0  15314-2 0  9996
2 46166  53.0549 308.5813 0001378  73.9042 286.2099 15.06359683173387
STARLINK-1626           
1 46167U 20057BC  23284.43908707  .00025905  00000+0  17528-2 0  9990
2 46167  53.0543 308.2187 0001653 111.3962 248.7203 15.06374182173399
STARLINK-1627           
1 46168U 20057BD  23284.35153923  .00000677  00000+0  64330-4 0  9998
2 46168  53.0531 258.6964 0001571 100.3544 259.7622 15.06393510174070
STARLINK-1628           
1 46169U 20057BE  23284.38753010  .00013112  00000+0  89826-3 0  9999
2 46169  53.0550 308.8335 0001829 101.3710 258.7484 15.06369110173325
STARLINK-1633           
1 46171U 20057BG  23284.48146483  .00001824  00000+0  14130-3 0  9996
2 46171  53.0532 288.0275 0001506  98.3429 261.7731 15.06395824174932
STARLINK-1635           
1 46172U 20057BH  23284.49621707  .00028425  00000+0  19206-2 0  9999
2 46172  53.0531 287.9622 0001518 112.8511 247.2639 15.06378644174930
STARLINK-1640           
1 46173U 20057BJ  23284.34323982 -.00000212  00000+0  46942-5 0  9993
2 46173  53.0541 308.6477 0001461  84.8458 275.2697 15.06390569173378
STARLINK-1641           
1 46174U 20057BK  23284.48330063  .00000038  00000+0  21485-4 0  9996
2 46174  53.0544 308.0198 0001797  97.6509 262.4684 15.06386974173398
STARLINK-1734           
1 46325U 20062A   23284.42847940 -.00001288  00000+0 -67595-4 0  9993
2 46325  53.0536 323.2609 0001313 101.8293 258.2843 15.06397026172855
STARLINK-1654           
1 46326U 20062B   23284.55890023  .00030880  00000+0  20818-2 0  9991
2 46326  53.0555   7.9214 0001794  85.5412 274.5782 15.06420334171658
STARLINK-1673           
1 46327U 20062C   23284.51463516  .00021179  00000+0  14362-2 0  9999
2 46327  53.0555   7.8789 0001476  63.1900 296.9240 15.06405915171640
STARLINK-1686           
1 46328U 20062D   23284.56070626  .00011291  00000+0  77557-3 0  9991
2 46328  53.0556 347.6727 0001571 105.4991 254.6172 15.06406371171939
STARLINK-1695           
1 46329U 20062E   23284.46119113  .00021543  00000+0  14604-2 0  9990
2 46329  53.0561 348.1206 0001844  81.2995 278.8203 15.06408840171916
STARLINK-1710           
1 46330U 20062F   23284.45013337  .00010490  00000+0  72204-3 0  9992
2 46330  53.0555 348.1706 0001619 104.1644 255.9525 15.06403046171929
STARLINK-1719           
1 46331U 20062G   23284.55149291  .00037270  00000+0  25052-2 0  9996
2 46331  53.0556   7.7115 0001350 104.2894 255.8245 15.06438748171658
STARLINK-1721           
1 46332U 20062H   23284.57876168  .00021242  00000+0  91435-3 0  9990
2 46332  53.0482 348.8970 0002987  59.5228 300.6063 15.22580566171926
STARLINK-1723           
1 46333U 20062J   23284.51095413  .00014011  00000+0  95738-3 0  9997
2 46333  53.0567   7.8959 0001716 102.7814 257.3367 15.06410940171645
STARLINK-1725           
1 46334U 20062K   23284.57917500  .00039830  00000+0  26764-2 0  9992
2 46334  53.0558 347.8681 0001609  96.9797 263.1375 15.06418582171936
STARLINK-1727           
1 46335U 20062L   23284.47408881  .00028404  00000+0  19181-2 0  9999
2 46335  53.0555   8.0587 0001841  91.2753 268.8447 15.06399912171648
STARLINK-1738           
1 46336U 20062M   23284.46487756  .00025025  00000+0  16925-2 0  9996
2 46336  53.0555 348.1000 0001767  85.2735 274.8456 15.06409572171918
STARLINK-1750           
1 46337U 20062N   23284.54596674  .00026792  00000+0  18098-2 0  9991
2 46337  53.0552 347.7412 0001502  68.9715 291.1434 15.06418652171930
STARLINK-1752           
1 46338U 20062P   23284.52938063  .00026951  00000+0  18199-2 0  9991
2 46338  53.0564   7.8140 0001514  73.6670 286.4486 15.06428213171648
STARLINK-1759           
1 46340U 20062R   23284.53577536  .00044696  00000+0  29969-2 0  9992
2 46340  53.0560   7.4406 0001712 102.3806 257.7375 15.06444913171642
STARLINK-1760           
1 46341U 20062S   23284.44276291  .00018670  00000+0  12691-2 0  9994
2 46341  53.0552 348.2036 0001445  84.7163 275.3991 15.06396624171927
STARLINK-1762           
1 46342U 20062T   23284.55518168  .00044127  00000+0  29603-2 0  9996
2 46342  53.0546   7.6970 0001554  68.6461 291.4693 15.06432013171658
STARLINK-1764           
1 46343U 20062U   23284.54965172  .00035392  00000+0  23817-2 0  9992
2 46343  53.0553 347.7224 0001459  62.8799 297.2338 15.06420385171931
STARLINK-1765           
1 46344U 20062V   23284.56808063  .00040906  00000+0  27465-2 0  9990
2 46344  53.0551 347.6389 0001527  87.3773 272.7390 15.06436323171936
STARLINK-1767           
1 46345U 20062W   23284.50358061  .00052943  00000+0  35438-2 0  9996
2 46345  53.0565   7.9260 0001627  65.5542 294.5616 15.06429436171647
STARLINK-1547           
1 46347U 20062Y   23284.39530694 -.00001775  00000+0 -10034-3 0  9994
2 46347  53.0560 323.4130 0001525  79.3050 280.8111 15.06387315172244
